{"type": "FeatureCollection", "features": [ {"type": "Feature", "properties": {"norad_id": 66568, "name": "STARLINK-35803", "group": "last-30-days", "lat": -41.501301787931, "lon": 40.21503836198906, "alt_km": 415.2384798981466, "timestamp": "2025-12-14T07:33:18.186776+00:00", "meta": {"OBJECT_NAME": "STARLINK-35803", "OBJECT_ID": "2025-268M", "EPOCH": "2025-12-13T08:41:56.908608", "MEAN_MOTION": 15.50717312, "ECCENTRICITY": 0.00024642, "INCLINATION": 42.9993, "RA_OF_ASC_NODE": 117.5029, "ARG_OF_PERICENTER": 252.0987, "MEAN_ANOMALY": 107.9605, "EPHEMERIS_TYPE": 0, "CLASSIFICATION_TYPE": "U", "NORAD_CAT_ID": 66568, "ELEMENT_SET_NO": 999, "REV_AT_EPOCH": 472, "BSTAR": 0.0036685951, "MEAN_MOTION_DOT": 0.00222195, "MEAN_MOTION_DDOT": 0}, "tle": {"line1": "1 66568U 25268M   25347.36246422  .00222195  00000+0  36686-2 0  9995", "line2": "2 66568  42.9993 117.5029 0002464 252.0987 107.9605 15.50717312  4726"}}, "geometry": {"type": "Point", "coordinates": [40.21503836198906, -41.501301787931]}}, {"type": "Feature", "properties": {"norad_id": 66569, "name": "STARLINK-35835", "group": "last-30-days", "lat": -41.08352162759671, "lon": 42.59624482588539, "alt_km": 415.170484323633, "timestamp": "2025-12-14T07:33:18.186786+00:00", "meta": {"OBJECT_NAME": "STARLINK-35835", "OBJECT_ID": "2025-268N", "EPOCH": "2025-12-13T07:08:42.513792", "MEAN_MOTION": 15.5067487, "ECCENTRICITY": 0.00024221, "INCLINATION": 42.9997, "RA_OF_ASC_NODE": 117.8787, "ARG_OF_PERICENTER": 267.9926, "MEAN_ANOMALY": 92.0656, "EPHEMERIS_TYPE": 0, "CLASSIFICATION_TYPE": "U", "NORAD_CAT_ID": 66569, "ELEMENT_SET_NO": 999, "REV_AT_EPOCH": 471, "BSTAR": 0.0036751571, "MEAN_MOTION_DOT": 0.00222258, "MEAN_MOTION_DDOT": 0}, "tle": {"line1": "1 66569U 25268N   25347.29771428  .00222258  00000+0  36752-2 0  9991", "line2": "2 66569  42.9997 117.8787 0002422 267.9926  92.0656 15.50674870  4717"}}, "geometry": {"type": "Point", "coordinates": [42.59624482588539, -41.08352162759671]}}, {"type": "Feature", "properties": {"norad_id": 66570, "name": "STARLINK-35834", "group": "last-30-days", "lat": -40.63043389445471, "lon": 44.87701652960328, "alt_km": 415.8615399481614, "timestamp": "2025-12-14T07:33:18.186796+00:00", "meta": {"OBJECT_NAME": "STARLINK-35834", "OBJECT_ID": "2025-268P", "EPOCH": "2025-12-13T08:40:57.823968", "MEAN_MOTION": 15.50695088, "ECCENTRICITY": 0.00023336, "INCLINATION": 42.9995, "RA_OF_ASC_NODE": 117.4977, "ARG_OF_PERICENTER": 235.4802, "MEAN_ANOMALY": 124.5838, "EPHEMERIS_TYPE": 0, "CLASSIFICATION_TYPE": "U", "NORAD_CAT_ID": 66570, "ELEMENT_SET_NO": 999, "REV_AT_EPOCH": 472, "BSTAR": 0.0030258781, "MEAN_MOTION_DOT": 0.00182119, "MEAN_MOTION_DDOT": 0}, "tle": {"line1": "1 66570U 25268P   25347.36178037  .00182119  00000+0  30259-2 0  9995", "line2": "2 66570  42.9995 117.4977 0002333 235.4802 124.5838 15.50695088  4726"}}, "geometry": {"type": "Point", "coordinates": [44.87701652960328, -40.63043389445471]}}, {"type": "Feature", "properties": {"norad_id": 66571, "name": "STARLINK-35836", "group": "last-30-days", "lat": -40.05610817544473, "lon": 47.45600129729853, "alt_km": 415.9177276590199, "timestamp": "2025-12-14T07:33:18.186822+00:00", "meta": {"OBJECT_NAME": "STARLINK-35836", "OBJECT_ID": "2025-268Q", "EPOCH": "2025-12-13T07:07:43.416192", "MEAN_MOTION": 15.50679355, "ECCENTRICITY": 0.00012087, "INCLINATION": 42.9995, "RA_OF_ASC_NODE": 117.8724, "ARG_OF_PERICENTER": 276.4988, "MEAN_ANOMALY": 83.5734, "EPHEMERIS_TYPE": 0, "CLASSIFICATION_TYPE": "U", "NORAD_CAT_ID": 66571, "ELEMENT_SET_NO": 999, "REV_AT_EPOCH": 471, "BSTAR": 0.0036460141, "MEAN_MOTION_DOT": 0.00220475, "MEAN_MOTION_DDOT": 0}, "tle": {"line1": "1 66571U 25268Q   25347.29703028  .00220475  00000+0  36460-2 0  9990", "line2": "2 66571  42.9995 117.8724 0001208 276.4988  83.5734 15.50679355  4718"}}, "geometry": {"type": "Point", "coordinates": [47.45600129729853, -40.05610817544473]}}, {"type": "Feature", "properties": {"norad_id": 66572, "name": "STARLINK-35870", "group": "last-30-days", "lat": -39.48131537202536, "lon": 49.77775028012722, "alt_km": 415.5027579243397, "timestamp": "2025-12-14T07:33:18.186834+00:00", "meta": {"OBJECT_NAME": "STARLINK-35870", "OBJECT_ID": "2025-268R", "EPOCH": "2025-12-13T07:07:13.690272", "MEAN_MOTION": 15.50672689, "ECCENTRICITY": 0.00018787, "INCLINATION": 42.9997, "RA_OF_ASC_NODE": 117.8716, "ARG_OF_PERICENTER": 272.7615, "MEAN_ANOMALY": 87.303, "EPHEMERIS_TYPE": 0, "CLASSIFICATION_TYPE": "U", "NORAD_CAT_ID": 66572, "ELEMENT_SET_NO": 999, "REV_AT_EPOCH": 471, "BSTAR": 0.0035819387, "MEAN_MOTION_DOT": 0.00216429, "MEAN_MOTION_DDOT": 0}, "tle": {"line1": "1 66572U 25268R   25347.29668623  .00216429  00000+0  35819-2 0  9993", "line2": "2 66572  42.9997 117.8716 0001878 272.7615  87.3030 15.50672689  4715"}}, "geometry": {"type": "Point", "coordinates": [49.77775028012722, -39.48131537202536]}}, {"type": "Feature", "properties": {"norad_id": 66573, "name": "STARLINK-35650", "group": "last-30-days", "lat": -38.941686381040576, "lon": 51.76753761577879, "alt_km": 416.15724247865546, "timestamp": "2025-12-14T07:33:18.186844+00:00", "meta": {"OBJECT_NAME": "STARLINK-35650", "OBJECT_ID": "2025-268S", "EPOCH": "2025-12-13T07:06:43.905600", "MEAN_MOTION": 15.50639523, "ECCENTRICITY": 0.00018406, "INCLINATION": 42.9994, "RA_OF_ASC_NODE": 117.8654, "ARG_OF_PERICENTER": 243.6153, "MEAN_ANOMALY": 116.4518, "EPHEMERIS_TYPE": 0, "CLASSIFICATION_TYPE": "U", "NORAD_CAT_ID": 66573, "ELEMENT_SET_NO": 999, "REV_AT_EPOCH": 471, "BSTAR": 0.0027926679, "MEAN_MOTION_DOT": 0.00167403, "MEAN_MOTION_DDOT": 0}, "tle": {"line1": "1 66573U 25268S   25347.29634150  .00167403  00000+0  27927-2 0  9990", "line2": "2 66573  42.9994 117.8654 0001840 243.6153 116.4518 15.50639523  4712"}}, "geometry": {"type": "Point", "coordinates": [51.76753761577879, -38.941686381040576]}}, {"type": "Feature", "properties": {"norad_id": 66574, "name": "STARLINK-35812", "group": "last-30-days", "lat": -38.201662379473284, "lon": 54.27968665710881, "alt_km": 415.6180198945958, "timestamp": "2025-12-14T07:33:18.186857+00:00", "meta": {"OBJECT_NAME": "STARLINK-35812", "OBJECT_ID": "2025-268T", "EPOCH": "2025-12-13T07:06:14.384448", "MEAN_MOTION": 15.50669927, "ECCENTRICITY": 0.00018659, "INCLINATION": 42.9998, "RA_OF_ASC_NODE": 117.8646, "ARG_OF_PERICENTER": 271.0853, "MEAN_ANOMALY": 88.9794, "EPHEMERIS_TYPE": 0, "CLASSIFICATION_TYPE": "U", "NORAD_CAT_ID": 66574, "ELEMENT_SET_NO": 999, "REV_AT_EPOCH": 471, "BSTAR": 0.0032054273, "MEAN_MOTION_DOT": 0.00193041, "MEAN_MOTION_DDOT": 0}, "tle": {"line1": "1 66574U 25268T   25347.29599982  .00193041  00000+0  32054-2 0  9998", "line2": "2 66574  42.9998 117.8646 0001865 271.0853  88.9794 15.50669927  4717"}}, "geometry": {"type": "Point", "coordinates": [54.27968665710881, -38.201662379473284]}}, {"type": "Feature", "properties": {"norad_id": 66575, "name": "STARLINK-35810", "group": "last-30-days", "lat": -37.597711304471936, "lon": 56.16791026954687, "alt_km": 416.34811624303984, "timestamp": "2025-12-14T07:33:18.186867+00:00", "meta": {"OBJECT_NAME": "STARLINK-35810", "OBJECT_ID": "2025-268U", "EPOCH": "2025-12-13T07:05:44.590272", "MEAN_MOTION": 15.50644493, "ECCENTRICITY": 0.00016643, "INCLINATION": 42.9995, "RA_OF_ASC_NODE": 117.8602, "ARG_OF_PERICENTER": 250.1593, "MEAN_ANOMALY": 109.9088, "EPHEMERIS_TYPE": 0, "CLASSIFICATION_TYPE": "U", "NORAD_CAT_ID": 66575, "ELEMENT_SET_NO": 999, "REV_AT_EPOCH": 471, "BSTAR": 0.0021756207, "MEAN_MOTION_DOT": 0.00129731, "MEAN_MOTION_DDOT": 0}, "tle": {"line1": "1 66575U 25268U   25347.29565498  .00129731  00000+0  21756-2 0  9996", "line2": "2 66575  42.9995 117.8602 0001664 250.1593 109.9088 15.50644493  4714"}}, "geometry": {"type": "Point", "coordinates": [56.16791026954687, -37.597711304471936]}}, {"type": "Feature", "properties": {"norad_id": 66576, "name": "STARLINK-35814", "group": "last-30-days", "lat": -36.71567071241006, "lon": 58.72606177956348, "alt_km": 415.6884394131357, "timestamp": "2025-12-14T07:33:18.186877+00:00", "meta": {"OBJECT_NAME": "STARLINK-35814", "OBJECT_ID": "2025-268V", "EPOCH": "2025-12-13T07:05:15.002592", "MEAN_MOTION": 15.50671663, "ECCENTRICITY": 0.00019449, "INCLINATION": 42.9994, "RA_OF_ASC_NODE": 117.8582, "ARG_OF_PERICENTER": 256.2355, "MEAN_ANOMALY": 103.8289, "EPHEMERIS_TYPE": 0, "CLASSIFICATION_TYPE": "U", "NORAD_CAT_ID": 66576, "ELEMENT_SET_NO": 999, "REV_AT_EPOCH": 471, "BSTAR": 0.0031471654, "MEAN_MOTION_DOT": 0.00189451, "MEAN_MOTION_DDOT": 0}, "tle": {"line1": "1 66576U 25268V   25347.29531253  .00189451  00000+0  31472-2 0  9990", "line2": "2 66576  42.9994 117.8582 0001944 256.2355 103.8289 15.50671663  4710"}}, "geometry": {"type": "Point", "coordinates": [58.72606177956348, -36.71567071241006]}}, {"type": "Feature", "properties": {"norad_id": 66577, "name": "STARLINK-35815", "group": "last-30-days", "lat": -36.00166584265457, "lon": 60.64907378876996, "alt_km": 415.7222655022424, "timestamp": "2025-12-14T07:33:18.186888+00:00", "meta": {"OBJECT_NAME": "STARLINK-35815", "OBJECT_ID": "2025-268W", "EPOCH": "2025-12-13T08:37:30.693792", "MEAN_MOTION": 15.50647951, "ECCENTRICITY": 0.00017844, "INCLINATION": 42.9992, "RA_OF_ASC_NODE": 117.4785, "ARG_OF_PERICENTER": 281.3238, "MEAN_ANOMALY": 78.7422, "EPHEMERIS_TYPE": 0, "CLASSIFICATION_TYPE": "U", "NORAD_CAT_ID": 66577, "ELEMENT_SET_NO": 999, "REV_AT_EPOCH": 472, "BSTAR": 0.0030530138, "MEAN_MOTION_DOT": 0.00183476, "MEAN_MOTION_DDOT": 0}, "tle": {"line1": "1 66577U 25268W   25347.35938303  .00183476  00000+0  30530-2 0  9990", "line2": "2 66577  42.9992 117.4785 0001784 281.3238  78.7422 15.50647951  4724"}}, "geometry": {"type": "Point", "coordinates": [60.64907378876996, -36.00166584265457]}}]}